METHANESAT              
1 59101U 24043D   26028.89837092  .00006395  00000+0  55650-3 0  9999
2 59101  97.8221 159.5159 0011783 114.3588 245.8865 14.97239183103809
GOSAT-GW (IBUKI GW)     
1 64694U 25141A   26028.96377135  .00001605  00000+0  29130-3 0  9990
2 64694  98.0470 328.6318 0001567  87.4575 272.6809 14.67557355 31427
GHGSAT-C1               
1 46278U 20061G   26028.91143487  .00038560  00000+0  44541-3 0  9993
2 46278  97.2245 110.4068 0001822 155.3170 204.8176 15.61806997301670
GHGSAT-C12              
1 64529U 25135B   26028.86229854  .00006676  00000+0  32076-3 0  9999
2 64529  97.4604 145.1490 0003903 308.5216  51.5669 15.19154652 33661
GHGSAT-C13              
1 64548U 25135W   26028.93082013  .00006048  00000+0  28491-3 0  9991
2 64548  97.4630 145.5836 0000767 151.5587 208.5690 15.19884497 33699
GHGSAT-C2               
1 47509U 21006DA  26028.68753536  .00010018  00000+0  28902-3 0  9998
2 47509  97.2383  78.3480 0004116 325.7163  34.3815 15.35882481278420
GHGSAT-C3               
1 52737U 22057F   26028.91348517  .00010888  00000+0  35272-3 0  9992
2 52737  97.6362 169.7528 0005197 252.5290 107.5383 15.32187663204199
GHGSAT-C4               
1 52746U 22057Q   26028.93283623  .00011529  00000+0  37342-3 0  9993
2 52746  97.6289 168.7451 0005576 235.5822 124.4892 15.32177405204202
GHGSAT-C5               
1 52744U 22057N   26028.95042362  .00011277  00000+0  36544-3 0  9999
2 52744  97.6451 171.2019 0006186 248.6463 111.4118 15.32164673204204
GHGSAT-C6               
1 56204U 23054AC  26028.94658817  .00021141  00000+0  39847-3 0  9999
2 56204  97.3157 296.7244 0007890 170.9420 189.1975 15.48491318156873
GHGSAT-C7               
1 56209U 23054AH  26028.98663513  .00017299  00000+0  34899-3 0  9998
2 56209  97.3118 295.8404 0008223 168.0225 192.1222 15.46559413156851
GHGSAT-C8               
1 56186U 23054J   26028.98332056  .00020855  00000+0  39291-3 0  9990
2 56186  97.3124 296.1675 0004845 184.1880 175.9332 15.48527581156863
SENTINEL-5P             
1 42969U 17064A   26028.85118614  .00000142  00000+0  88173-4 0  9997
2 42969  98.7836 332.0309 0001128  87.1009 273.0296 14.19538443429792
ENMAP                   
1 52159U 22033C   26028.68787201  .00000907  00000+0  14226-3 0  9992
2 52159  97.9769 112.9272 0001378  92.3054 267.8313 14.75022179206092
PRISMA                  
1 44072U 19015A   26028.94090538  .00000384  00000+0  52902-4 0  9995
2 44072  97.8738 105.7070 0001247  86.3661 273.7696 14.83678928371406
SENTINEL-2A             
1 40697U 15028A   26027.43861170  .00000164  00000+0  79040-4 0  9993
2 40697  98.5675 104.3440 0001151 111.6176 248.5130 14.30878427553601
SENTINEL-2B             
1 42063U 17013A   26028.97668156  .00000137  00000+0  69035-4 0  9990
2 42063  98.5646 105.7449 0001120  87.4858 272.6453 14.30822183464734
SENTINEL-2C             
1 60989U 24157A   26028.80188080  .00000227  00000+0  10317-3 0  9997
2 60989  98.5741 105.5865 0000493 122.8257 237.2974 14.30796929 73050
LANDSAT 8               
1 39084U 13008A   26028.90086033  .00000647  00000+0  15362-3 0  9999
2 39084  98.1998 101.2621 0001319  94.5892 265.5458 14.57106970677616
LANDSAT 9               
1 49260U 21088A   26028.79799539  .00000673  00000+0  15932-3 0  9994
2 49260  98.2021 101.2106 0001221  95.8281 264.3057 14.57129394230709
